CCSDS_OMM_VERS = 2.0
CREATION_DATE  = 
ORIGINATOR     = 

OBJECT_NAME    = STARLINK-35293
OBJECT_ID      = 2025-232H
CENTER_NAME    = EARTH
REF_FRAME      = TEME
TIME_SYSTEM    = UTC
MEAN_ELEMENT_THEORY = SGP/SGP4

EPOCH          = 2025-10-28T16:00:07.000416
MEAN_MOTION    = 15.77209263
ECCENTRICITY   = .00009073
INCLINATION    = 53.1548
RA_OF_ASC_NODE = 1.4343
ARG_OF_PERICENTER = 63.4323
MEAN_ANOMALY   = 243.7796

EPHEMERIS_TYPE = 0
CLASSIFICATION_TYPE = U
NORAD_CAT_ID   = 66012
ELEMENT_SET_NO = 999
REV_AT_EPOCH   = 231
BSTAR          = -.10324714E-1
MEAN_MOTION_DOT = -.1517498E-1
MEAN_MOTION_DDOT = 0

CCSDS_OMM_VERS = 2.0
CREATION_DATE  = 
ORIGINATOR     = 

OBJECT_NAME    = STARLINK-35307
OBJECT_ID      = 2025-232J
CENTER_NAME    = EARTH
REF_FRAME      = TEME
TIME_SYSTEM    = UTC
MEAN_ELEMENT_THEORY = SGP/SGP4

EPOCH          = 2025-10-28T16:00:07.000416
MEAN_MOTION    = 15.77172744
ECCENTRICITY   = .00009775
INCLINATION    = 53.1553
RA_OF_ASC_NODE = 1.4302
ARG_OF_PERICENTER = 62.4973
MEAN_ANOMALY   = 246.8257

EPHEMERIS_TYPE = 0
CLASSIFICATION_TYPE = U
NORAD_CAT_ID   = 66013
ELEMENT_SET_NO = 999
REV_AT_EPOCH   = 224
BSTAR          = -.10554953E-1
MEAN_MOTION_DOT = -.1544906E-1
MEAN_MOTION_DDOT = 0

CCSDS_OMM_VERS = 2.0
CREATION_DATE  = 
ORIGINATOR     = 

OBJECT_NAME    = STARLINK-35395
OBJECT_ID      = 2025-232K
CENTER_NAME    = EARTH
REF_FRAME      = TEME
TIME_SYSTEM    = UTC
MEAN_ELEMENT_THEORY = SGP/SGP4

EPOCH          = 2025-10-28T16:00:07.000416
MEAN_MOTION    = 15.77163379
ECCENTRICITY   = .00010009
INCLINATION    = 53.1548
RA_OF_ASC_NODE = 1.4258
ARG_OF_PERICENTER = 60.5452
MEAN_ANOMALY   = 250.7718

EPHEMERIS_TYPE = 0
CLASSIFICATION_TYPE = U
NORAD_CAT_ID   = 66014
ELEMENT_SET_NO = 999
REV_AT_EPOCH   = 230
BSTAR          = -.1071161E-1
MEAN_MOTION_DOT = -.1564349E-1
MEAN_MOTION_DDOT = 0

CCSDS_OMM_VERS = 2.0
CREATION_DATE  = 
ORIGINATOR     = 

OBJECT_NAME    = STARLINK-34622
OBJECT_ID      = 2025-232L
CENTER_NAME    = EARTH
REF_FRAME      = TEME
TIME_SYSTEM    = UTC
MEAN_ELEMENT_THEORY = SGP/SGP4

EPOCH          = 2025-10-28T16:00:07.000416
MEAN_MOTION    = 15.76908808
ECCENTRICITY   = .00011322
INCLINATION    = 53.1551
RA_OF_ASC_NODE = 1.4081
ARG_OF_PERICENTER = 58.7538
MEAN_ANOMALY   = 261.1411

EPHEMERIS_TYPE = 0
CLASSIFICATION_TYPE = U
NORAD_CAT_ID   = 66015
ELEMENT_SET_NO = 999
REV_AT_EPOCH   = 220
BSTAR          = -.11460741E-1
MEAN_MOTION_DOT = -.1676227E-1
MEAN_MOTION_DDOT = 0

CCSDS_OMM_VERS = 2.0
CREATION_DATE  = 
ORIGINATOR     = 

OBJECT_NAME    = STARLINK-35243
OBJECT_ID      = 2025-232M
CENTER_NAME    = EARTH
REF_FRAME      = TEME
TIME_SYSTEM    = UTC
MEAN_ELEMENT_THEORY = SGP/SGP4

EPOCH          = 2025-10-28T16:00:07.000416
MEAN_MOTION    = 15.76990365
ECCENTRICITY   = .00011226
INCLINATION    = 53.1548
RA_OF_ASC_NODE = 1.4122
ARG_OF_PERICENTER = 64.8817
MEAN_ANOMALY   = 252.8455

EPHEMERIS_TYPE = 0
CLASSIFICATION_TYPE = U
NORAD_CAT_ID   = 66016
ELEMENT_SET_NO = 999
REV_AT_EPOCH   = 231
BSTAR          = -.11321012E-1
MEAN_MOTION_DOT = -.1663481E-1
MEAN_MOTION_DDOT = 0

CCSDS_OMM_VERS = 2.0
CREATION_DATE  = 
ORIGINATOR     = 

OBJECT_NAME    = STARLINK-35398
OBJECT_ID      = 2025-232N
CENTER_NAME    = EARTH
REF_FRAME      = TEME
TIME_SYSTEM    = UTC
MEAN_ELEMENT_THEORY = SGP/SGP4

EPOCH          = 2025-10-28T16:00:07.000416
MEAN_MOTION    = 15.76764800
ECCENTRICITY   = .00008344
INCLINATION    = 53.1554
RA_OF_ASC_NODE = 1.3989
ARG_OF_PERICENTER = 58.2630
MEAN_ANOMALY   = 265.8949

EPHEMERIS_TYPE = 0
CLASSIFICATION_TYPE = U
NORAD_CAT_ID   = 66017
ELEMENT_SET_NO = 999
REV_AT_EPOCH   = 223
BSTAR          = -.11736611E-1
MEAN_MOTION_DOT = -.1701916E-1
MEAN_MOTION_DDOT = 0

CCSDS_OMM_VERS = 2.0
CREATION_DATE  = 
ORIGINATOR     = 

OBJECT_NAME    = STARLINK-35376
OBJECT_ID      = 2025-232P
CENTER_NAME    = EARTH
REF_FRAME      = TEME
TIME_SYSTEM    = UTC
MEAN_ELEMENT_THEORY = SGP/SGP4

EPOCH          = 2025-10-28T16:00:07.000416
MEAN_MOTION    = 15.76801823
ECCENTRICITY   = .00011781
INCLINATION    = 53.1551
RA_OF_ASC_NODE = 1.4035
ARG_OF_PERICENTER = 62.4654
MEAN_ANOMALY   = 259.6598

EPHEMERIS_TYPE = 0
CLASSIFICATION_TYPE = U
NORAD_CAT_ID   = 66018
ELEMENT_SET_NO = 999
REV_AT_EPOCH   = 231
BSTAR          = -.11642441E-1
MEAN_MOTION_DOT = -.169256E-1
MEAN_MOTION_DDOT = 0

CCSDS_OMM_VERS = 2.0
CREATION_DATE  = 
ORIGINATOR     = 

OBJECT_NAME    = STARLINK-35382
OBJECT_ID      = 2025-232Q
CENTER_NAME    = EARTH
REF_FRAME      = TEME
TIME_SYSTEM    = UTC
MEAN_ELEMENT_THEORY = SGP/SGP4

EPOCH          = 2025-10-28T16:00:07.000416
MEAN_MOTION    = 15.77064805
ECCENTRICITY   = .00010986
INCLINATION    = 53.1554
RA_OF_ASC_NODE = 1.4166
ARG_OF_PERICENTER = 58.4249
MEAN_ANOMALY   = 257.1336

EPHEMERIS_TYPE = 0
CLASSIFICATION_TYPE = U
NORAD_CAT_ID   = 66019
ELEMENT_SET_NO = 999
REV_AT_EPOCH   = 231
BSTAR          = -.11147753E-1
MEAN_MOTION_DOT = -.1645725E-1
MEAN_MOTION_DDOT = 0

CCSDS_OMM_VERS = 2.0
CREATION_DATE  = 
ORIGINATOR     = 

OBJECT_NAME    = STARLINK-35430
OBJECT_ID      = 2025-232R
CENTER_NAME    = EARTH
REF_FRAME      = TEME
TIME_SYSTEM    = UTC
MEAN_ELEMENT_THEORY = SGP/SGP4

EPOCH          = 2025-10-28T16:00:07.000416
MEAN_MOTION    = 15.76681643
ECCENTRICITY   = .00010628
INCLINATION    = 53.1549
RA_OF_ASC_NODE = 1.3899
ARG_OF_PERICENTER = 63.1446
MEAN_ANOMALY   = 265.0773

EPHEMERIS_TYPE = 0
CLASSIFICATION_TYPE = U
NORAD_CAT_ID   = 66020
ELEMENT_SET_NO = 999
REV_AT_EPOCH   = 230
BSTAR          = -.118957E-1
MEAN_MOTION_DOT = -.1716778E-1
MEAN_MOTION_DDOT = 0

CCSDS_OMM_VERS = 2.0
CREATION_DATE  = 
ORIGINATOR     = 

OBJECT_NAME    = STARLINK-35432
OBJECT_ID      = 2025-232S
CENTER_NAME    = EARTH
REF_FRAME      = TEME
TIME_SYSTEM    = UTC
MEAN_ELEMENT_THEORY = SGP/SGP4

EPOCH          = 2025-10-28T16:00:07.000416
MEAN_MOTION    = 15.76763679
ECCENTRICITY   = .00008799
INCLINATION    = 53.1548
RA_OF_ASC_NODE = 1.3941
ARG_OF_PERICENTER = 57.4537
MEAN_ANOMALY   = 268.6239

EPHEMERIS_TYPE = 0
CLASSIFICATION_TYPE = U
NORAD_CAT_ID   = 66021
ELEMENT_SET_NO = 999
REV_AT_EPOCH   = 223
BSTAR          = -.11731087E-1
MEAN_MOTION_DOT = -.1701165E-1
MEAN_MOTION_DDOT = 0

CCSDS_OMM_VERS = 2.0
CREATION_DATE  = 
ORIGINATOR     = 

OBJECT_NAME    = STARLINK-35340
OBJECT_ID      = 2025-232T
CENTER_NAME    = EARTH
REF_FRAME      = TEME
TIME_SYSTEM    = UTC
MEAN_ELEMENT_THEORY = SGP/SGP4

EPOCH          = 2025-10-28T16:00:07.000416
MEAN_MOTION    = 15.76661598
ECCENTRICITY   = .00008837
INCLINATION    = 53.1555
RA_OF_ASC_NODE = 1.3859
ARG_OF_PERICENTER = 60.4528
MEAN_ANOMALY   = 269.7494

EPHEMERIS_TYPE = 0
CLASSIFICATION_TYPE = U
NORAD_CAT_ID   = 66022
ELEMENT_SET_NO = 999
REV_AT_EPOCH   = 230
BSTAR          = -.1197263E-1
MEAN_MOTION_DOT = -.172507E-1
MEAN_MOTION_DDOT = 0

CCSDS_OMM_VERS = 2.0
CREATION_DATE  = 
ORIGINATOR     = 

OBJECT_NAME    = STARLINK-35394
OBJECT_ID      = 2025-232U
CENTER_NAME    = EARTH
REF_FRAME      = TEME
TIME_SYSTEM    = UTC
MEAN_ELEMENT_THEORY = SGP/SGP4

EPOCH          = 2025-10-28T16:00:07.000416
MEAN_MOTION    = 15.76616464
ECCENTRICITY   = .00010093
INCLINATION    = 53.1553
RA_OF_ASC_NODE = 1.3817
ARG_OF_PERICENTER = 58.8966
MEAN_ANOMALY   = 273.3462

EPHEMERIS_TYPE = 0
CLASSIFICATION_TYPE = U
NORAD_CAT_ID   = 66023
ELEMENT_SET_NO = 999
REV_AT_EPOCH   = 230
BSTAR          = -.12093119E-1
MEAN_MOTION_DOT = -.1737355E-1
MEAN_MOTION_DDOT = 0

