STARLINK-35293          
1 66012U 25232H   25301.66674769 -.01517498  00000+0 -10325-1 0  9999
2 66012  53.1548   1.4343 0000907  63.4323 243.7796 15.77209263  2311
STARLINK-35307          
1 66013U 25232J   25301.66674769 -.01544906  00000+0 -10555-1 0  9999
2 66013  53.1553   1.4302 0000977  62.4973 246.8257 15.77172744  2241
STARLINK-35395          
1 66014U 25232K   25301.66674769 -.01564349  00000+0 -10712-1 0  9998
2 66014  53.1548   1.4258 0001000  60.5452 250.7718 15.77163379  2302
STARLINK-34622          
1 66015U 25232L   25301.66674769 -.01676227  00000+0 -11461-1 0  9990
2 66015  53.1551   1.4081 0001132  58.7538 261.1411 15.76908808  2209
STARLINK-35243          
1 66016U 25232M   25301.66674769 -.01663481  00000+0 -11321-1 0  9994
2 66016  53.1548   1.4122 0001122  64.8817 252.8455 15.76990365  2315
STARLINK-35398          
1 66017U 25232N   25301.66674769 -.01701916  00000+0 -11737-1 0  9992
2 66017  53.1554   1.3989 0000834  58.2630 265.8949 15.76764800  2238
STARLINK-35376          
1 66018U 25232P   25301.66674769 -.01692560  00000+0 -11642-1 0  9992
2 66018  53.1551   1.4035 0001178  62.4654 259.6598 15.76801823  2311
STARLINK-35382          
1 66019U 25232Q   25301.66674769 -.01645725  00000+0 -11148-1 0  9995
2 66019  53.1554   1.4166 0001098  58.4249 257.1336 15.77064805  2311
STARLINK-35430          
1 66020U 25232R   25301.66674769 -.01716778  00000+0 -11896-1 0  9994
2 66020  53.1549   1.3899 0001062  63.1446 265.0773 15.76681643  2308
STARLINK-35432          
1 66021U 25232S   25301.66674769 -.01701165  00000+0 -11731-1 0  9997
2 66021  53.1548   1.3941 0000879  57.4537 268.6239 15.76763679  2236
STARLINK-35340          
1 66022U 25232T   25301.66674769 -.01725070  00000+0 -11973-1 0  9997
2 66022  53.1555   1.3859 0000883  60.4528 269.7494 15.76661598  2302
STARLINK-35394          
1 66023U 25232U   25301.66674769 -.01737355  00000+0 -12093-1 0  9991
2 66023  53.1553   1.3817 0001009  58.8966 273.3462 15.76616464  2301
